TIANMU-1 07             
1 57399U 23101A   26065.57454230  .00008352  00000+0  29795-3 0  9991
2 57399  97.2728 118.5929 0004609 142.4105 217.7458 15.29118809145964
STARLINK-35825          
1 66567U 25268L   26068.10473069  .00031086  00000+0  11338-2 0  9990
2 66567  43.0016 350.0796 0001091 266.9898  93.0829 15.27596711 17873
